[{"OBJECT_NAME":"HAWK-6A","OBJECT_ID":"2023-011D","EPOCH":"2026-04-25T20:15:54.526176","MEAN_MOTION":15.22449836,"ECCENTRICITY":0.00031664,"INCLINATION":40.4992,"RA_OF_ASC_NODE":295.7227,"ARG_OF_PERICENTER":338.8536,"MEAN_ANOMALY":21.2142,"EPHEMERIS_TYPE":0,"CLASSIFICATION_TYPE":"U","NORAD_CAT_ID":55327,"ELEMENT_SET_NO":999,"REV_AT_EPOCH":17987,"BSTAR":0.0002547124,"MEAN_MOTION_DOT":5.827e-5,"MEAN_MOTION_DDOT":0},{"OBJECT_NAME":"HAWK-7A","OBJECT_ID":"2023-054P","EPOCH":"2026-04-25T16:31:43.904640","MEAN_MOTION":15.26793077,"ECCENTRICITY":0.00021151,"INCLINATION":97.2766,"RA_OF_ASC_NODE":4.363,"ARG_OF_PERICENTER":182.0167,"MEAN_ANOMALY":178.1064,"EPHEMERIS_TYPE":0,"CLASSIFICATION_TYPE":"U","NORAD_CAT_ID":56191,"ELEMENT_SET_NO":999,"REV_AT_EPOCH":16901,"BSTAR":0.00021900176,"MEAN_MOTION_DOT":5.696e-5,"MEAN_MOTION_DDOT":0},{"OBJECT_NAME":"HAWK-7B","OBJECT_ID":"2023-054R","EPOCH":"2026-04-25T16:31:38.232480","MEAN_MOTION":15.26793457,"ECCENTRICITY":0.0001257,"INCLINATION":97.2795,"RA_OF_ASC_NODE":2.6079,"ARG_OF_PERICENTER":175.0506,"MEAN_ANOMALY":185.0746,"EPHEMERIS_TYPE":0,"CLASSIFICATION_TYPE":"U","NORAD_CAT_ID":56193,"ELEMENT_SET_NO":999,"REV_AT_EPOCH":16901,"BSTAR":0.00022257636,"MEAN_MOTION_DOT":5.79e-5,"MEAN_MOTION_DDOT":0},{"OBJECT_NAME":"HAWK-7C","OBJECT_ID":"2023-054Y","EPOCH":"2026-04-25T16:31:29.073216","MEAN_MOTION":15.26794294,"ECCENTRICITY":0.00017952,"INCLINATION":97.277,"RA_OF_ASC_NODE":3.3931,"ARG_OF_PERICENTER":168.888,"MEAN_ANOMALY":191.24,"EPHEMERIS_TYPE":0,"CLASSIFICATION_TYPE":"U","NORAD_CAT_ID":56200,"ELEMENT_SET_NO":999,"REV_AT_EPOCH":16901,"BSTAR":0.00021860031,"MEAN_MOTION_DOT":5.685e-5,"MEAN_MOTION_DDOT":0}]
